NORAD_CAT_ID,OBJECT_NAME,OBJECT_TYPE,EPOCH,MEAN_MOTION,ECCENTRICITY,INCLINATION,RA_OF_ASC_NODE,ARG_OF_PERICENTER,MEAN_ANOMALY,BSTAR,MEAN_MOTION_DOT,MEAN_MOTION_DDOT,TLE_LINE0,TLE_LINE1,TLE_LINE2,SEMIMAJOR_AXIS,PERIOD,APOGEE,PERIGEE,DECAYED
52472.0,STARLINK-3881,PAYLOAD,2024-02-06 19:29:32,15.08844848,0.0001526,53.2168,239.3206,84.136,275.9806,4.4388e-05,4.19e-06,0.0,0 STARLINK-3881,1 52472U 22049X   24037.81218173  .00000419  00000-0  44388-4 0  9999,2 52472  53.2168 239.3206 0001526  84.1360 275.9806 15.08844848 97393,6917.866,95.437,540.786,538.675,0.0
52472.0,STARLINK-3881,PAYLOAD,2024-02-06 21:04:55,15.08845573,0.0001474,53.2164,239.023,83.5847,276.5313,4.7876e-05,4.74e-06,0.0,0 STARLINK-3881,1 52472U 22049X   24037.87842109  .00000474  00000-0  47876-4 0  9993,2 52472  53.2164 239.0230 0001474  83.5847 276.5313 15.08845573 97248,6917.863,95.437,540.748,538.709,0.0
52472.0,STARLINK-3881,PAYLOAD,2024-02-07 12:58:47,15.08838661,0.0001382,53.2158,236.0491,84.1899,275.9251,9.7806e-05,1.269e-05,0.0,0 STARLINK-3881,1 52472U 22049X   24038.54082357  .00001269  00000-0  97806-4 0  9990,2 52472  53.2158 236.0491 0001382  84.1899 275.9251 15.08838661 97344,6917.884,95.438,540.706,538.793,0.0
52472.0,STARLINK-3881,PAYLOAD,2024-02-07 19:20:19,15.0883868,0.000133,53.2156,234.8596,87.0693,273.0451,9.6516e-05,1.248e-05,0.0,0 STARLINK-3881,1 52472U 22049X   24038.80578393  .00001248  00000-0  96516-4 0  9993,2 52472  53.2156 234.8596 0001330  87.0693 273.0451 15.08838680 97545,6917.884,95.438,540.67,538.829,0.0
52472.0,STARLINK-3881,PAYLOAD,2024-02-08 12:49:34,15.08843562,0.0001346,53.2159,231.5884,89.2053,270.9093,6.5018e-05,7.47e-06,0.0,0 STARLINK-3881,1 52472U 22049X   24039.53442191  .00000747  00000-0  65018-4 0  9996,2 52472  53.2159 231.5884 0001346  89.2053 270.9093 15.08843562 97490,6917.87,95.437,540.666,538.803,0.0
52472.0,STARLINK-3881,PAYLOAD,2024-02-08 22:21:52,15.08847028,0.0001366,53.2161,229.8038,91.3961,268.7188,8.2433e-05,1.024e-05,0.0,0 STARLINK-3881,1 52472U 22049X   24039.93185793  .00001024  00000-0  82433-4 0  9991,2 52472  53.2161 229.8038 0001366  91.3961 268.7188 15.08847028 97556,6917.859,95.437,540.669,538.779,0.0
52472.0,STARLINK-3881,PAYLOAD,2024-02-09 12:40:21,15.08839707,0.0001404,53.2162,227.1263,95.9143,264.2009,5.1621e-05,5.34e-06,0.0,0 STARLINK-3881,1 52472U 22049X   24040.52802303  .00000534  00000-0  51621-4 0  9991,2 52472  53.2162 227.1263 0001404  95.9143 264.2009 15.08839707 97641,6917.881,95.438,540.718,538.775,0.0
52472.0,STARLINK-3881,PAYLOAD,2024-02-09 17:26:30,15.08824505,0.0001506,53.2167,226.234,97.8075,262.3088,0.0002796,4.163e-05,0.0,0 STARLINK-3881,1 52472U 22049X   24040.72674605  .00004163  00000-0  27960-3 0  9995,2 52472  53.2167 226.2340 0001506  97.8075 262.3088 15.08824505 97837,6917.928,95.439,540.835,538.751,0.0
52472.0,STARLINK-3881,PAYLOAD,2024-02-09 22:12:39,15.08841936,0.0001392,53.2165,225.3419,96.8749,263.2401,5.8698e-05,6.46e-06,0.0,0 STARLINK-3881,1 52472U 22049X   24040.92546085  .00000646  00000-0  58698-4 0  9992,2 52472  53.2165 225.3419 0001392  96.8749 263.2401 15.08841936 97861,6917.874,95.437,540.702,538.777,0.0
52472.0,STARLINK-3881,PAYLOAD,2024-02-10 18:52:41,15.08837361,0.0001534,53.2169,221.4751,118.6357,241.4789,-9.7985e-06,-4.44e-06,0.0,0 STARLINK-3881,1 52472U 22049X   24041.78658599 -.00000444  00000-0 -97985-5 0  9992,2 52472  53.2169 221.4751 0001534 118.6357 241.4789 15.08837361 97995,6917.888,95.438,540.815,538.692,0.0
52472.0,STARLINK-3881,PAYLOAD,2024-02-10 22:03:27,15.08837927,0.0001501,53.2167,220.8799,118.2524,241.862,-7.6221e-06,-4.09e-06,0.0,0 STARLINK-3881,1 52472U 22049X   24041.91906560 -.00000409  00000-0 -76221-5 0  9992,2 52472  53.2167 220.8799 0001501 118.2524 241.8620 15.08837927 97855,6917.887,95.438,540.79,538.713,0.0
52472.0,STARLINK-3881,PAYLOAD,2024-02-11 12:21:55,15.08838394,0.0001515,53.2167,218.2039,122.7684,237.3454,3.1782e-05,2.18e-06,0.0,0 STARLINK-3881,1 52472U 22049X   24042.51522472  .00000218  00000-0  31782-4 0  9993,2 52472  53.2167 218.2039 0001515 122.7684 237.3454 15.08838394 97949,6917.885,95.438,540.798,538.702,0.0
52472.0,STARLINK-3881,PAYLOAD,2024-02-11 17:08:04,15.08841803,0.0001429,53.2168,217.3119,115.9115,244.2025,5.7361e-05,6.25e-06,0.0,0 STARLINK-3881,1 52472U 22049X   24042.71394238  .00000625  00000-0  57361-4 0  9995,2 52472  53.2168 217.3119 0001429 115.9115 244.2025 15.08841803 97979,6917.875,95.437,540.728,538.751,0.0
52472.0,STARLINK-3881,PAYLOAD,2024-02-12 20:09:38,15.08841688,0.0001183,53.2164,212.2577,86.7171,273.3956,9.2756e-05,1.189e-05,0.0,0 STARLINK-3881,1 52472U 22049X   24043.84002567  .00001189  00000-0  92756-4 0  9994,2 52472  53.2164 212.2577 0001183  86.7171 273.3956 15.08841688 98306,6917.875,95.437,540.559,538.922,0.0
52472.0,STARLINK-3881,PAYLOAD,2024-02-13 04:06:34,15.08840817,0.0001269,53.2166,210.7714,75.3774,284.7359,6.8202e-05,7.98e-06,0.0,0 STARLINK-3881,1 52472U 22049X   24044.17122784  .00000798  00000-0  68202-4 0  9999,2 52472  53.2166 210.7714 0001269  75.3774 284.7359 15.08840817 98195,6917.878,95.438,540.621,538.865,0.0
52472.0,STARLINK-3881,PAYLOAD,2024-02-13 20:00:25,15.08837057,0.0001521,53.2175,207.7975,92.8206,267.2961,4.6368e-05,4.5e-06,0.0,0 STARLINK-3881,1 52472U 22049X   24044.83363306  .00000450  00000-0  46368-4 0  9993,2 52472  53.2175 207.7975 0001521  92.8206 267.2961 15.08837057 98451,6917.889,95.438,540.807,538.702,0.0
52472.0,STARLINK-3881,PAYLOAD,2024-02-14 15:05:03,15.08833495,0.0001345,53.2164,204.2318,78.3499,281.7644,2.381e-05,9.1e-07,0.0,0 STARLINK-3881,1 52472U 22049X   24045.62851799  .00000091  00000-0  23810-4 0  9997,2 52472  53.2164 204.2318 0001345  78.3499 281.7644 15.08833495 98416,6917.9,95.438,540.696,538.835,0.0
52472.0,STARLINK-3881,PAYLOAD,2024-02-14 16:40:27,15.08834771,0.0001289,53.2156,203.9344,81.5991,278.5147,2.2926e-05,7.7e-07,0.0,0 STARLINK-3881,1 52472U 22049X   24045.69475715  .00000077  00000-0  22926-4 0  9995,2 52472  53.2156 203.9344 0001289  81.5991 278.5147 15.08834771 98423,6917.896,95.438,540.653,538.87,0.0
52472.0,STARLINK-3881,PAYLOAD,2024-02-15 03:48:08,15.08845299,0.0001238,53.2163,201.8521,83.9569,276.1564,1.1838e-05,-9.9e-07,0.0,0 STARLINK-3881,1 52472U 22049X   24046.15843071 -.00000099  00000-0  11838-4 0  9996,2 52472  53.2163 201.8521 0001238  83.9569 276.1564 15.08845299 98655,6917.864,95.437,540.586,538.873,0.0
52472.0,STARLINK-3881,PAYLOAD,2024-02-15 14:55:50,15.08830192,0.0001336,53.2163,199.7706,82.4913,277.623,0.00018701,2.689e-05,0.0,0 STARLINK-3881,1 52472U 22049X   24046.62211724  .00002689  00000-0  18701-3 0  9993,2 52472  53.2163 199.7706 0001336  82.4913 277.6230 15.08830192 98563,6917.91,95.438,540.7,538.851,0.0
52472.0,STARLINK-3881,PAYLOAD,2024-02-15 19:41:59,15.08846167,0.0001406,53.2165,198.8769,86.9396,273.1757,0.00010854,1.44e-05,0.0,0 STARLINK-3881,1 52472U 22049X   24046.82082847  .00001440  00000-0  10854-3 0  9992,2 52472  53.2165 198.8769 0001406  86.9396 273.1757 15.08846167 98593,6917.862,95.437,540.699,538.754,0.0
52472.0,STARLINK-3881,PAYLOAD,2024-02-16 14:46:37,15.08829724,0.0001451,53.216,195.3083,92.6627,267.4532,0.00024597,3.628e-05,0.0,0 STARLINK-3881,1 52472U 22049X   24047.61571520  .00003628  00000-0  24597-3 0  9990,2 52472  53.2160 195.3083 0001451  92.6627 267.4532 15.08829724 98711,6917.912,95.438,540.781,538.773,0.0
52472.0,STARLINK-3881,PAYLOAD,2024-02-16 19:32:46,15.08847074,0.0001613,53.2177,194.414,108.6264,251.4903,6.9853e-05,8.24e-06,0.0,0 STARLINK-3881,1 52472U 22049X   24047.81442745  .00000824  00000-0  69853-4 0  9998,2 52472  53.2177 194.4140 0001613 108.6264 251.4903 15.08847074 98902,6917.859,95.437,540.84,538.608,0.0
52472.0,STARLINK-3881,PAYLOAD,2024-02-17 14:37:24,15.08839639,0.0001631,53.2184,190.8445,108.8041,251.3128,-2.503e-06,-3.28e-06,0.0,0 STARLINK-3881,1 52472U 22049X   24048.60931378 -.00000328  00000-0 -25030-5 0  9992,2 52472  53.2184 190.8445 0001631 108.8041 251.3128 15.08839639 98864,6917.881,95.438,540.875,538.618,0.0
52472.0,STARLINK-3881,PAYLOAD,2024-02-17 19:23:33,15.08843563,0.0001413,53.2166,189.9546,83.7836,276.3317,2.9164e-05,1.76e-06,0.0,0 STARLINK-3881,1 52472U 22049X   24048.80803121  .00000176  00000-0  29164-4 0  9998,2 52472  53.2166 189.9546 0001413  83.7836 276.3317 15.08843563 99056,6917.869,95.437,540.712,538.757,0.0
52472.0,STARLINK-3881,PAYLOAD,2024-02-18 09:42:03,15.08833056,0.000137,53.2187,187.2758,92.8677,267.2472,-5.2569e-05,-1.124e-05,0.0,0 STARLINK-3881,1 52472U 22049X   24049.40420142 -.00001124  00000-0 -52569-4 0  9994,2 52472  53.2187 187.2758 0001370  92.8677 267.2472 15.08833056 99148,6917.902,95.438,540.714,538.819,0.0
52472.0,STARLINK-3881,PAYLOAD,2024-02-18 14:28:12,15.08837669,0.0001411,53.2174,186.3838,88.9797,271.1357,-1.6893e-05,-5.57e-06,0.0,0 STARLINK-3881,1 52472U 22049X   24049.60291844 -.00000557  00000-0 -16893-4 0  9990,2 52472  53.2174 186.3838 0001411  88.9797 271.1357 15.08837669 99014,6917.888,95.438,540.729,538.776,0.0
52472.0,STARLINK-3881,PAYLOAD,2024-02-18 16:03:35,15.08841606,0.000137,53.2174,186.0904,87.5173,272.5976,4.4946e-05,4.27e-06,0.0,0 STARLINK-3881,1 52472U 22049X   24049.66915657  .00000427  00000-0  44946-4 0  9995,2 52472  53.2174 186.0904 0001370  87.5173 272.5976 15.08841606 99188,6917.875,95.437,540.688,538.793,0.0
52472.0,STARLINK-3881,PAYLOAD,2024-02-19 09:32:50,15.08834616,0.0001316,53.2172,182.8222,83.8438,276.2704,-1.4498e-05,-5.19e-06,0.0,0 STARLINK-3881,1 52472U 22049X   24050.39780449 -.00000519  00000-0 -14498-4 0  9999,2 52472  53.2172 182.8222 0001316  83.8438 276.2704 15.08834616 99291,6917.897,95.438,540.672,538.851,0.0
52472.0,STARLINK-3881,PAYLOAD,2024-02-19 14:18:59,15.08838594,0.0001343,53.2174,181.9318,89.8932,270.2214,3.1482e-05,2.13e-06,0.0,0 STARLINK-3881,1 52472U 22049X   24050.59652077  .00000213  00000-0  31482-4 0  9997,2 52472  53.2174 181.9318 0001343  89.8932 270.2214 15.08838594 99169,6917.885,95.438,540.679,538.821,0.0
